NORAD_CAT_ID,OBJECT_NAME,OBJECT_TYPE,EPOCH,MEAN_MOTION,ECCENTRICITY,INCLINATION,RA_OF_ASC_NODE,ARG_OF_PERICENTER,MEAN_ANOMALY,BSTAR,MEAN_MOTION_DOT,MEAN_MOTION_DDOT,TLE_LINE0,TLE_LINE1,TLE_LINE2,SEMIMAJOR_AXIS,PERIOD,APOGEE,PERIGEE,DECAYED
55391.0,STARLINK-5077,PAYLOAD,2024-07-02 08:44:58,14.97540129,0.0003058,70.0001,175.5741,275.6159,84.4651,0.0004526,5.203e-05,0.0,0 STARLINK-5077,1 55391U 23014A   24184.36457005  .00005203  00000-0  45260-3 0  9992,2 55391  70.0001 175.5741 0003058 275.6159  84.4651 14.97540129 79897,6952.637,96.158,576.628,572.375,0.0
55391.0,STARLINK-5077,PAYLOAD,2024-07-02 16:45:54,14.97541637,0.0003045,70.0,174.7331,275.2401,84.841,0.00039701,4.552e-05,0.0,0 STARLINK-5077,1 55391U 23014A   24184.69854632  .00004552  00000-0  39701-3 0  9994,2 55391  70.0000 174.7331 0003045 275.2401  84.8410 14.97541637 79009,6952.632,96.158,576.614,572.38,0.0
55391.0,STARLINK-5077,PAYLOAD,2024-07-03 16:48:41,14.9753572,0.0002976,70.0002,172.2101,274.8804,85.2015,3.5896e-05,3.27e-06,0.0,0 STARLINK-5077,1 55391U 23014A   24185.70047752  .00000327  00000-0  35896-4 0  9992,2 55391  70.0002 172.2101 0002976 274.8804  85.2015 14.97535720 79151,6952.65,96.158,576.584,572.446,0.0
55391.0,STARLINK-5077,PAYLOAD,2024-07-04 04:01:59,14.97529149,0.0002911,69.9996,171.0329,273.5422,86.5404,-1.5987e-05,-2.79e-06,0.0,0 STARLINK-5077,1 55391U 23014A   24186.16805395 -.00000279  00000-0 -15987-4 0  9995,2 55391  69.9996 171.0329 0002911 273.5422  86.5404 14.97529149 79222,6952.671,96.158,576.559,572.512,0.0
55391.0,STARLINK-5077,PAYLOAD,2024-07-04 08:50:33,14.97529199,0.0002909,69.9996,170.5279,272.5789,87.5037,-2.3256e-05,-3.64e-06,0.0,0 STARLINK-5077,1 55391U 23014A   24186.36844012 -.00000364  00000-0 -23256-4 0  9999,2 55391  69.9996 170.5279 0002909 272.5789  87.5037 14.97529199 80198,6952.67,96.158,576.558,572.513,0.0
55391.0,STARLINK-5077,PAYLOAD,2024-07-04 23:16:13,14.97531845,0.0002919,69.9996,169.0142,272.5183,87.5641,-1.423e-07,-9.4e-07,0.0,0 STARLINK-5077,1 55391U 23014A   24186.96959823 -.00000094  00000-0 -14230-6 0  9996,2 55391  69.9996 169.0142 0002919 272.5183  87.5641 14.97531845 80281,6952.662,96.158,576.557,572.498,0.0
55391.0,STARLINK-5077,PAYLOAD,2024-07-05 04:04:46,14.97531288,0.0002931,69.9996,168.5097,272.5992,87.4831,-8.7692e-06,-1.95e-06,0.0,0 STARLINK-5077,1 55391U 23014A   24187.16998536 -.00000195  00000-0 -87692-5 0  9996,2 55391  69.9996 168.5097 0002931 272.5992  87.4831 14.97531288 79375,6952.664,96.158,576.567,572.491,0.0
55391.0,STARLINK-5077,PAYLOAD,2024-07-05 08:53:19,14.97533753,0.0002925,69.9996,168.0051,272.5574,87.525,-2.9454e-06,-1.27e-06,0.0,0 STARLINK-5077,1 55391U 23014A   24187.37037011 -.00000127  00000-0 -29454-5 0  9998,2 55391  69.9996 168.0051 0002925 272.5574  87.5250 14.97533753 80343,6952.656,96.158,576.555,572.488,0.0
55391.0,STARLINK-5077,PAYLOAD,2024-07-06 05:43:45,14.97520367,0.0002896,69.9997,165.8187,272.2083,87.8744,1.7368e-05,1.11e-06,0.0,0 STARLINK-5077,1 55391U 23014A   24188.23872516  .00000111  00000-0  17368-4 0  9992,2 55391  69.9997 165.8187 0002896 272.2083  87.8744 14.97520367 79535,6952.698,96.159,576.576,572.549,0.0
55391.0,STARLINK-5077,PAYLOAD,2024-07-06 08:56:08,14.97520752,0.0002901,69.9997,165.4823,272.3218,87.7609,1.9422e-05,1.35e-06,0.0,0 STARLINK-5077,1 55391U 23014A   24188.37231694  .00000135  00000-0  19422-4 0  9992,2 55391  69.9997 165.4823 0002901 272.3218  87.7609 14.97520752 80490,6952.697,96.159,576.579,572.545,0.0
55391.0,STARLINK-5077,PAYLOAD,2024-07-06 15:20:52,14.97520986,0.0002899,69.9998,164.8096,272.5042,87.5784,1.4218e-05,7.4e-07,0.0,0 STARLINK-5077,1 55391U 23014A   24188.63950064  .00000074  00000-0  14218-4 0  9990,2 55391  69.9998 164.8096 0002899 272.5042  87.5784 14.97520986 80535,6952.696,96.159,576.576,572.545,0.0
55391.0,STARLINK-5077,PAYLOAD,2024-07-07 08:58:55,14.97526116,0.0002848,69.9997,162.9598,270.5202,89.563,2.0774e-05,1.51e-06,0.0,0 STARLINK-5077,1 55391U 23014A   24189.37425248  .00000151  00000-0  20774-4 0  9993,2 55391  69.9997 162.9598 0002848 270.5202  89.5630 14.97526116 79700,6952.68,96.159,576.525,572.565,0.0
55391.0,STARLINK-5077,PAYLOAD,2024-07-08 01:00:47,14.97518836,0.0002886,69.9996,161.2779,267.7386,92.3442,4.4843e-05,4.32e-06,0.0,0 STARLINK-5077,1 55391U 23014A   24190.04221671  .00000432  00000-0  44843-4 0  9998,2 55391  69.9996 161.2779 0002886 267.7386  92.3442 14.97518836 79809,6952.702,96.159,576.574,572.561,0.0
55391.0,STARLINK-5077,PAYLOAD,2024-07-08 09:01:43,14.97521648,0.0002875,69.9996,160.437,267.1882,92.8948,6.9106e-05,7.15e-06,0.0,0 STARLINK-5077,1 55391U 23014A   24190.37619448  .00000715  00000-0  69106-4 0  9990,2 55391  69.9996 160.4370 0002875 267.1882  92.8948 14.97521648 80791,6952.694,96.159,576.558,572.56,0.0
55391.0,STARLINK-5077,PAYLOAD,2024-07-08 15:26:27,14.9752237,0.0002907,69.9996,159.7641,268.1227,91.9599,6.0872e-05,6.19e-06,0.0,0 STARLINK-5077,1 55391U 23014A   24190.64337836  .00000619  00000-0  60872-4 0  9992,2 55391  69.9996 159.7641 0002907 268.1227  91.9599 14.97522370 80833,6952.692,96.159,576.578,572.535,0.0
55391.0,STARLINK-5077,PAYLOAD,2024-07-09 04:15:57,14.97524923,0.0002982,69.9994,158.4181,268.7716,91.3101,2.9931e-05,2.57e-06,0.0,0 STARLINK-5077,1 55391U 23014A   24191.17774529  .00000257  00000-0  29931-4 0  9994,2 55391  69.9994 158.4181 0002982 268.7716  91.3101 14.97524923 79970,6952.684,96.159,576.622,572.475,0.0
55391.0,STARLINK-5077,PAYLOAD,2024-07-09 07:28:19,14.97525558,0.0002857,69.9997,158.0819,267.2225,92.8607,4.8065e-05,4.69e-06,0.0,0 STARLINK-5077,1 55391U 23014A   24191.31133632  .00000469  00000-0  48065-4 0  9998,2 55391  69.9997 158.0819 0002857 267.2225  92.8607 14.97525558 80937,6952.682,96.159,576.533,572.56,0.0
55391.0,STARLINK-5077,PAYLOAD,2024-07-09 21:54:00,14.9752087,0.0002956,69.9996,156.5684,269.3597,90.7223,8.2918e-06,5e-08,0.0,0 STARLINK-5077,1 55391U 23014A   24191.91250420  .00000005  00000-0  82918-5 0  9991,2 55391  69.9996 156.5684 0002956 269.3597  90.7223 14.97520870 81028,6952.696,96.159,576.616,572.506,0.0
55391.0,STARLINK-5077,PAYLOAD,2024-07-10 04:18:45,14.97521103,0.0002962,69.9996,155.896,269.7936,90.2883,1.0912e-05,3.5e-07,0.0,0 STARLINK-5077,1 55391U 23014A   24192.17968824  .00000035  00000-0  10912-4 0  9991,2 55391  69.9996 155.8960 0002962 269.7936  90.2883 14.97521103 80122,6952.695,96.159,576.62,572.501,0.0
55391.0,STARLINK-5077,PAYLOAD,2024-07-10 07:31:07,14.97522728,0.0002944,69.9997,155.5596,269.7893,90.2928,2.8873e-05,2.45e-06,0.0,0 STARLINK-5077,1 55391U 23014A   24192.31327875  .00000245  00000-0  28873-4 0  9990,2 55391  69.9997 155.5596 0002944 269.7893  90.2928 14.97522728 81087,6952.69,96.159,576.602,572.509,0.0
55391.0,STARLINK-5077,PAYLOAD,2024-07-10 21:56:47,14.97525405,0.0002933,69.9998,154.0457,270.1166,89.9656,6.3447e-05,6.49e-06,0.0,0 STARLINK-5077,1 55391U 23014A   24192.91443948  .00000649  00000-0  63447-4 0  9990,2 55391  69.9998 154.0457 0002933 270.1166  89.9656 14.97525405 81173,6952.682,96.159,576.586,572.508,0.0
55391.0,STARLINK-5077,PAYLOAD,2024-07-11 04:21:32,14.97528718,0.0002897,69.9999,153.3732,269.5616,90.5211,7.1797e-05,7.47e-06,0.0,0 STARLINK-5077,1 55391U 23014A   24193.18162071  .00000747  00000-0  71797-4 0  9991,2 55391  69.9999 153.3732 0002897 269.5616  90.5211 14.97528718 80278,6952.672,96.158,576.551,572.523,0.0
55391.0,STARLINK-5077,PAYLOAD,2024-07-11 07:33:54,14.97530614,0.0002887,69.9999,153.0368,269.5812,90.5016,9.1571e-05,9.78e-06,0.0,0 STARLINK-5077,1 55391U 23014A   24193.31521050  .00000978  00000-0  91571-4 0  9990,2 55391  69.9999 153.0368 0002887 269.5812  90.5016 14.97530614 81235,6952.666,96.158,576.538,572.524,0.0
55391.0,STARLINK-5077,PAYLOAD,2024-07-12 04:24:21,14.9750473,0.0002606,70.0008,150.8511,267.9662,92.1198,-0.00010977,-1.374e-05,0.0,0 STARLINK-5077,1 55391U 23014A   24194.18358416 -.00001374  00000-0 -10977-3 0  9993,2 55391  70.0008 150.8511 0002606 267.9662  92.1198 14.97504730 80427,6952.746,96.16,576.423,572.799,0.0
55391.0,STARLINK-5077,PAYLOAD,2024-07-12 14:01:28,14.97512747,0.0002659,70.0006,149.8419,268.2414,91.844,-4.533e-05,-6.22e-06,0.0,0 STARLINK-5077,1 55391U 23014A   24194.58435704 -.00000622  00000-0 -45330-4 0  9990,2 55391  70.0006 149.8419 0002659 268.2414  91.8440 14.97512747 81421,6952.721,96.159,576.435,572.738,0.0
55391.0,STARLINK-5077,PAYLOAD,2024-07-12 20:26:12,14.97518807,0.0003199,69.9992,149.1679,268.9356,91.1436,-7.4103e-05,-9.58e-06,0.0,0 STARLINK-5077,1 55391U 23014A   24194.85153784 -.00000958  00000-0 -74103-4 0  9997,2 55391  69.9992 149.1679 0003199 268.9356  91.1436 14.97518807 80526,6952.703,96.159,576.792,572.343,0.0
55391.0,STARLINK-5077,PAYLOAD,2024-07-12 22:02:23,14.97518198,0.0003231,69.9995,148.9999,270.1513,89.9276,-1.4935e-05,-2.67e-06,0.0,0 STARLINK-5077,1 55391U 23014A   24194.91833296 -.00000267  00000-0 -14935-4 0  9997,2 55391  69.9995 148.9999 0003231 270.1513  89.9276 14.97518198 81473,6952.704,96.159,576.816,572.323,0.0
55391.0,STARLINK-5077,PAYLOAD,2024-07-13 04:27:08,14.97524471,0.0002953,69.9998,148.3267,268.2331,91.8489,2.1562e-05,1.6e-06,0.0,0 STARLINK-5077,1 55391U 23014A   24195.18551261  .00000160  00000-0  21562-4 0  9990,2 55391  69.9998 148.3267 0002953 268.2331  91.8489 14.97524471 80573,6952.685,96.159,576.603,572.497,0.0
55391.0,STARLINK-5077,PAYLOAD,2024-07-13 14:04:15,14.97518291,0.0003307,69.9999,147.3176,237.5999,122.484,0.00024391,2.759e-05,0.0,0 STARLINK-5077,1 55391U 23014A   24195.58628586  .00002759  00000-0  24391-3 0  9997,2 55391  69.9999 147.3176 0003307 237.5999 122.4840 14.97518291 81571,6952.704,96.159,576.868,572.27,0.0
55391.0,STARLINK-5077,PAYLOAD,2024-07-13 22:05:10,14.97524856,0.0003108,69.9996,146.4767,267.6841,92.3961,0.00026034,2.951e-05,0.0,0 STARLINK-5077,1 55391U 23014A   24195.92026261  .00002951  00000-0  26034-3 0  9997,2 55391  69.9996 146.4767 0003108 267.6841  92.3961 14.97524856 81622,6952.684,96.159,576.71,572.388,0.0
